{
  "norad_id": 58113,
  "name": "STARLINK-30353",
  "history": [
    {
      "epoch": "2026-04-15T10:17:43.893600Z",
      "apogee_km": 476.1793431971546,
      "perigee_km": 474.30096958613103,
      "latitude_deg": -6.155591661565544e-05,
      "longitude_deg": -2.9341143537817773,
      "height_km": 476.1548955478667,
      "semi_major_axis_km": 6853.3771563916425,
      "eccentricity": 0.00013704,
      "inclination_deg": 53.1624,
      "raan_deg": 355.09,
      "arg_perigee_deg": 91.009,
      "mean_anomaly_deg": 269.1067,
      "mean_motion_rev_day": 15.30191598
    },
    {
      "epoch": "2026-04-16T09:48:31.565088Z",
      "apogee_km": 476.0786768168409,
      "perigee_km": 474.3858946032706,
      "latitude_deg": 1.0035188192168339e-05,
      "longitude_deg": -1.1505448430506917,
      "height_km": 476.19422442380454,
      "semi_major_axis_km": 6853.369285710056,
      "eccentricity": 0.0001235,
      "inclination_deg": 53.1616,
      "raan_deg": 350.5378,
      "arg_perigee_deg": 94.3124,
      "mean_anomaly_deg": 265.8018,
      "mean_motion_rev_day": 15.30194234
    },
    {
      "epoch": "2026-04-17T21:51:43.603776Z",
      "apogee_km": 476.3085207580907,
      "perigee_km": 473.99073921982927,
      "latitude_deg": -3.318314516755812e-05,
      "longitude_deg": 169.5876057033597,
      "height_km": 476.58689376128666,
      "semi_major_axis_km": 6853.28662998896,
      "eccentricity": 0.0001691,
      "inclination_deg": 53.1619,
      "raan_deg": 343.5568,
      "arg_perigee_deg": 117.7332,
      "mean_anomaly_deg": 242.384,
      "mean_motion_rev_day": 15.30221917
    },
    {
      "epoch": "2026-04-18T08:50:07.696032Z",
      "apogee_km": 476.0566533804713,
      "perigee_km": 474.5010650487475,
      "latitude_deg": -4.155451394711821e-05,
      "longitude_deg": 2.4153553283869598,
      "height_km": 476.4516379553258,
      "semi_major_axis_km": 6853.41585921461,
      "eccentricity": 0.00011349,
      "inclination_deg": 53.1624,
      "raan_deg": 341.4356,
      "arg_perigee_deg": 110.6402,
      "mean_anomaly_deg": 249.472,
      "mean_motion_rev_day": 15.30178636
    },
    {
      "epoch": "2026-04-19T19:19:15.806784Z",
      "apogee_km": 476.28832316442913,
      "perigee_km": 474.0938875051006,
      "latitude_deg": -2.0710345675975162e-05,
      "longitude_deg": -162.9570976663752,
      "height_km": 476.6631472101631,
      "semi_major_axis_km": 6853.328105334765,
      "eccentricity": 0.0001601,
      "inclination_deg": 53.1616,
      "raan_deg": 334.7632,
      "arg_perigee_deg": 121.5389,
      "mean_anomaly_deg": 238.5768,
      "mean_motion_rev_day": 15.30208026
    },
    {
      "epoch": "2026-04-20T07:51:42.791040Z",
      "apogee_km": 476.1025440737585,
      "perigee_km": 474.4438817340315,
      "latitude_deg": -2.718778688427111e-05,
      "longitude_deg": 5.989128593682919,
      "height_km": 476.19692682241316,
      "semi_major_axis_km": 6853.410212903895,
      "eccentricity": 0.00012101,
      "inclination_deg": 53.1613,
      "raan_deg": 332.3369,
      "arg_perigee_deg": 91.7565,
      "mean_anomaly_deg": 268.3574,
      "mean_motion_rev_day": 15.30180527
    },
    {
      "epoch": "2026-04-21T18:20:53.672640Z",
      "apogee_km": 476.0401173681912,
      "perigee_km": 474.4062762972653,
      "latitude_deg": -2.1259483775374525e-05,
      "longitude_deg": -159.39801479324075,
      "height_km": 476.2642715024224,
      "semi_major_axis_km": 6853.3601968327275,
      "eccentricity": 0.0001192,
      "inclination_deg": 53.1612,
      "raan_deg": 325.6614,
      "arg_perigee_deg": 100.0629,
      "mean_anomaly_deg": 260.0506,
      "mean_motion_rev_day": 15.30197278
    },
    {
      "epoch": "2026-04-22T20:59:48.177888Z",
      "apogee_km": 475.94481036826164,
      "perigee_km": 474.5453497475137,
      "latitude_deg": 2.732559011893663e-05,
      "longitude_deg": 154.62379953580685,
      "height_km": 476.16571388622225,
      "semi_major_axis_km": 6853.382080057887,
      "eccentricity": 0.0001021,
      "inclination_deg": 53.16,
      "raan_deg": 320.5047,
      "arg_perigee_deg": 91.8205,
      "mean_anomaly_deg": 268.2913,
      "mean_motion_rev_day": 15.30189949
    },
    {
      "epoch": "2026-04-23T00:07:54.482016Z",
      "apogee_km": 475.9656764190677,
      "perigee_km": 474.51248655474774,
      "latitude_deg": 6.36838548602109e-05,
      "longitude_deg": 106.86170576551795,
      "height_km": 476.1366322847167,
      "semi_major_axis_km": 6853.376081486907,
      "eccentricity": 0.00010602,
      "inclination_deg": 53.1602,
      "raan_deg": 319.8976,
      "arg_perigee_deg": 89.9355,
      "mean_anomaly_deg": 270.1768,
      "mean_motion_rev_day": 15.30191958
    },
    {
      "epoch": "2026-04-24T20:01:23.924352Z",
      "apogee_km": 475.9679883823874,
      "perigee_km": 474.47669738937566,
      "latitude_deg": -2.9524914677465067e-05,
      "longitude_deg": 158.19149706555552,
      "height_km": 476.138534445706,
      "semi_major_axis_km": 6853.359342885881,
      "eccentricity": 0.0001088,
      "inclination_deg": 53.1602,
      "raan_deg": 311.4027,
      "arg_perigee_deg": 91.3713,
      "mean_anomaly_deg": 268.7412,
      "mean_motion_rev_day": 15.30197564
    },
    {
      "epoch": "2026-04-25T19:32:11.747040Z",
      "apogee_km": 475.9756316460316,
      "perigee_km": 474.463781156599,
      "latitude_deg": 1.3508341537567865e-05,
      "longitude_deg": 159.97601146635546,
      "height_km": 476.17029141551063,
      "semi_major_axis_km": 6853.356706401315,
      "eccentricity": 0.0001103,
      "inclination_deg": 53.1605,
      "raan_deg": 306.8521,
      "arg_perigee_deg": 93.9619,
      "mean_anomaly_deg": 266.1508,
      "mean_motion_rev_day": 15.30198447
    },
    {
      "epoch": "2026-04-26T19:02:59.736480Z",
      "apogee_km": 475.9999959423294,
      "perigee_km": 474.44688739903813,
      "latitude_deg": 5.0609778872072763e-05,
      "longitude_deg": 161.76092537196286,
      "height_km": 476.01780385403225,
      "semi_major_axis_km": 6853.360441670684,
      "eccentricity": 0.00011331,
      "inclination_deg": 53.1603,
      "raan_deg": 302.3026,
      "arg_perigee_deg": 82.3081,
      "mean_anomaly_deg": 277.8049,
      "mean_motion_rev_day": 15.30197196
    },
    {
      "epoch": "2026-04-27T18:33:47.958336Z",
      "apogee_km": 476.0426032772584,
      "perigee_km": 474.4293192821724,
      "latitude_deg": -2.8018786806679273e-05,
      "longitude_deg": 163.54238232343096,
      "height_km": 475.9888444172603,
      "semi_major_axis_km": 6853.372961279715,
      "eccentricity": 0.0001177,
      "inclination_deg": 53.1602,
      "raan_deg": 297.7507,
      "arg_perigee_deg": 79.6176,
      "mean_anomaly_deg": 280.4957,
      "mean_motion_rev_day": 15.30193003
    }
  ]
}